{
    "week": 293,
    "satellites": [
        {
            "Name": "BEIDOU-3 M13 (C32)",
            "Line1": "1 43622U 18072A   24322.30973353 -.00000034  00000+0  00000+0 0  9997",
            "Line2": "2 43622  56.1213  81.7782 0004722 291.8798  68.0404  1.86231004 41911",
            "SatelliteNumber": "43622",
            "Classification": "U",
            "LaunchYear": "18",
            "LaunchNumber": "072",
            "PieceOfLaunch": "A",
            "EpochYear": "24",
            "EpochDay": 322.30973353,
            "FirstDerivativeMeanMotion": -3.4e-07,
            "SecondDerivativeMeanMotion": "00000+0",
            "BSTAR": "00000+0",
            "SetNumber": "999",
            "Inclination": 56.1213,
            "RAAN": 81.7782,
            "Eccentricity": 0.0004722,
            "ArgumentOfPerigee": 291.8798,
            "MeanAnomaly": 68.0404,
            "MeanMotion": 1.86231004,
            "RevolutionNumber": "4191"
        },
        {
            "Name": "BEIDOU-3 M14 (C33)",
            "Line1": "1 43623U 18072B   24322.71215548 -.00000032  00000+0  00000+0 0  9996",
            "Line2": "2 43623  56.1236  81.7582 0002370 338.0743  21.8871  1.86230993 41917",
            "SatelliteNumber": "43623",
            "Classification": "U",
            "LaunchYear": "18",
            "LaunchNumber": "072",
            "PieceOfLaunch": "B",
            "EpochYear": "24",
            "EpochDay": 322.71215548,
            "FirstDerivativeMeanMotion": -3.2e-07,
            "SecondDerivativeMeanMotion": "00000+0",
            "BSTAR": "00000+0",
            "SetNumber": "999",
            "Inclination": 56.1236,
            "RAAN": 81.7582,
            "Eccentricity": 0.000237,
            "ArgumentOfPerigee": 338.0743,
            "MeanAnomaly": 21.8871,
            "MeanMotion": 1.86230993,
            "RevolutionNumber": "4191"
        },
        {
            "Name": "BEIDOU-3 M16 (C35)",
            "Line1": "1 43647U 18078A   24322.33698446 -.00000078  00000+0  00000+0 0  9998",
            "Line2": "2 43647  54.5972 320.1234 0006582   7.1098 352.9039  1.86232162 41411",
            "SatelliteNumber": "43647",
            "Classification": "U",
            "LaunchYear": "18",
            "LaunchNumber": "078",
            "PieceOfLaunch": "A",
            "EpochYear": "24",
            "EpochDay": 322.33698446,
            "FirstDerivativeMeanMotion": -7.8e-07,
            "SecondDerivativeMeanMotion": "00000+0",
            "BSTAR": "00000+0",
            "SetNumber": "999",
            "Inclination": 54.5972,
            "RAAN": 320.1234,
            "Eccentricity": 0.0006582,
            "ArgumentOfPerigee": 7.1098,
            "MeanAnomaly": 352.9039,
            "MeanMotion": 1.86232162,
            "RevolutionNumber": "4141"
        },
        {
            "Name": "BEIDOU-3 M15 (C34)",
            "Line1": "1 43648U 18078B   24323.54001474 -.00000078  00000+0  00000+0 0  9992",
            "Line2": "2 43648  54.5919 320.0838 0003305   2.8411 357.1637  1.86232101 41462",
            "SatelliteNumber": "43648",
            "Classification": "U",
            "LaunchYear": "18",
            "LaunchNumber": "078",
            "PieceOfLaunch": "B",
            "EpochYear": "24",
            "EpochDay": 323.54001474,
            "FirstDerivativeMeanMotion": -7.8e-07,
            "SecondDerivativeMeanMotion": "00000+0",
            "BSTAR": "00000+0",
            "SetNumber": "999",
            "Inclination": 54.5919,
            "RAAN": 320.0838,
            "Eccentricity": 0.0003305,
            "ArgumentOfPerigee": 2.8411,
            "MeanAnomaly": 357.1637,
            "MeanMotion": 1.86232101,
            "RevolutionNumber": "4146"
        },
        {
            "Name": "BEIDOU-3 G1 (C59)",
            "Line1": "1 43683U 18085A   24323.76299588 -.00000274  00000+0  00000+0 0  9996",
            "Line2": "2 43683   2.5734 104.0691 0001652  61.0940 307.8757  1.00271820 22284",
            "SatelliteNumber": "43683",
            "Classification": "U",
            "LaunchYear": "18",
            "LaunchNumber": "085",
            "PieceOfLaunch": "A",
            "EpochYear": "24",
            "EpochDay": 323.76299588,
            "FirstDerivativeMeanMotion": -2.74e-06,
            "SecondDerivativeMeanMotion": "00000+0",
            "BSTAR": "00000+0",
            "SetNumber": "999",
            "Inclination": 2.5734,
            "RAAN": 104.0691,
            "Eccentricity": 0.0001652,
            "ArgumentOfPerigee": 61.094,
            "MeanAnomaly": 307.8757,
            "MeanMotion": 1.0027182,
            "RevolutionNumber": "2228"
        },
        {
            "Name": "BEIDOU-3 M17 (C36)",
            "Line1": "1 43706U 18093A   24323.15571400  .00000035  00000+0  00000+0 0  9994",
            "Line2": "2 43706  54.1976 201.8438 0007115 297.2599  62.7628  1.86228324 40817",
            "SatelliteNumber": "43706",
            "Classification": "U",
            "LaunchYear": "18",
            "LaunchNumber": "093",
            "PieceOfLaunch": "A",
            "EpochYear": "24",
            "EpochDay": 323.155714,
            "FirstDerivativeMeanMotion": 3.5e-07,
            "SecondDerivativeMeanMotion": "00000+0",
            "BSTAR": "00000+0",
            "SetNumber": "999",
            "Inclination": 54.1976,
            "RAAN": 201.8438,
            "Eccentricity": 0.0007115,
            "ArgumentOfPerigee": 297.2599,
            "MeanAnomaly": 62.7628,
            "MeanMotion": 1.86228324,
            "RevolutionNumber": "4081"
        },
        {
            "Name": "BEIDOU-3 M18 (C37)",
            "Line1": "1 43707U 18093B   24323.01979338  .00000037  00000+0  00000+0 0  9994",
            "Line2": "2 43707  54.1984 201.8402 0006627 335.5641  24.5002  1.86229881 40809",
            "SatelliteNumber": "43707",
            "Classification": "U",
            "LaunchYear": "18",
            "LaunchNumber": "093",
            "PieceOfLaunch": "B",
            "EpochYear": "24",
            "EpochDay": 323.01979338,
            "FirstDerivativeMeanMotion": 3.7e-07,
            "SecondDerivativeMeanMotion": "00000+0",
            "BSTAR": "00000+0",
            "SetNumber": "999",
            "Inclination": 54.1984,
            "RAAN": 201.8402,
            "Eccentricity": 0.0006627,
            "ArgumentOfPerigee": 335.5641,
            "MeanAnomaly": 24.5002,
            "MeanMotion": 1.86229881,
            "RevolutionNumber": "4080"
        },
        {
            "Name": "BEIDOU-3 IGSO-1 (C38)",
            "Line1": "1 44204U 19023A   24323.67305698 -.00000235  00000+0  00000+0 0  9996",
            "Line2": "2 44204  57.8718  43.6133 0024953 211.2842 162.6029  1.00255133 20597",
            "SatelliteNumber": "44204",
            "Classification": "U",
            "LaunchYear": "19",
            "LaunchNumber": "023",
            "PieceOfLaunch": "A",
            "EpochYear": "24",
            "EpochDay": 323.67305698,
            "FirstDerivativeMeanMotion": -2.35e-06,
            "SecondDerivativeMeanMotion": "00000+0",
            "BSTAR": "00000+0",
            "SetNumber": "999",
            "Inclination": 57.8718,
            "RAAN": 43.6133,
            "Eccentricity": 0.0024953,
            "ArgumentOfPerigee": 211.2842,
            "MeanAnomaly": 162.6029,
            "MeanMotion": 1.00255133,
            "RevolutionNumber": "2059"
        },
        {
            "Name": "BEIDOU-2 G8 (C01)",
            "Line1": "1 44231U 19027A   24323.75156646 -.00000245  00000+0  00000+0 0  9997",
            "Line2": "2 44231   1.8609  74.6762 0004966 196.5495 202.1564  1.00269131 20304",
            "SatelliteNumber": "44231",
            "Classification": "U",
            "LaunchYear": "19",
            "LaunchNumber": "027",
            "PieceOfLaunch": "A",
            "EpochYear": "24",
            "EpochDay": 323.75156646,
            "FirstDerivativeMeanMotion": -2.45e-06,
            "SecondDerivativeMeanMotion": "00000+0",
            "BSTAR": "00000+0",
            "SetNumber": "999",
            "Inclination": 1.8609,
            "RAAN": 74.6762,
            "Eccentricity": 0.0004966,
            "ArgumentOfPerigee": 196.5495,
            "MeanAnomaly": 202.1564,
            "MeanMotion": 1.00269131,
            "RevolutionNumber": "2030"
        },
        {
            "Name": "BEIDOU-3 IGSO-2 (C39)",
            "Line1": "1 44337U 19035A   24322.83050358 -.00000064  00000+0  00000+0 0  9993",
            "Line2": "2 44337  55.1861 163.9216 0034767 201.0257 107.1426  1.00249229 19887",
            "SatelliteNumber": "44337",
            "Classification": "U",
            "LaunchYear": "19",
            "LaunchNumber": "035",
            "PieceOfLaunch": "A",
            "EpochYear": "24",
            "EpochDay": 322.83050358,
            "FirstDerivativeMeanMotion": -6.4e-07,
            "SecondDerivativeMeanMotion": "00000+0",
            "BSTAR": "00000+0",
            "SetNumber": "999",
            "Inclination": 55.1861,
            "RAAN": 163.9216,
            "Eccentricity": 0.0034767,
            "ArgumentOfPerigee": 201.0257,
            "MeanAnomaly": 107.1426,
            "MeanMotion": 1.00249229,
            "RevolutionNumber": "1988"
        }
    ]
}